      2.10          N: GNSS NAV DATA                        RINEX VERSION / TYPE
fic2rin                                 05/02/2021 00:17:23 PGM / RUN BY / DATE
                                                            END OF HEADER
24 21  5  1 10  0  0.0 4.884274676442e-05 2.671640686458e-11 0.000000000000e+00
    5.800000000000e+01 8.375000000000e+00 5.209859868718e-09 2.567690392874e+00
    2.719461917877e-07 1.106337131932e-02 8.478760719299e-06 5.153732269287e+03
    5.544000000000e+05-8.195638656616e-08 1.236926889370e-01-1.303851604462e-07
    9.355335398814e-01 2.011250000000e+02 7.389675705426e-01-8.018548290436e-09
   -4.589476884420e-10 1.000000000000e+00 2.155000000000e+03 0.000000000000e+00
    2.400000000000e+00 0.000000000000e+00 2.793967723846e-09 5.800000000000e+01
    5.472000000000e+05 4.000000000000e+00
21 21  5  1 10  0  0.0 1.149913296103e-04 2.728484105319e-12 0.000000000000e+00
    4.100000000000e+01-9.675000000000e+01 4.443042213399e-09-1.712641247045e+00
   -4.444271326065e-06 2.410302008502e-02 4.710629582405e-06 5.153696886063e+03
    5.544000000000e+05-2.905726432800e-07-3.021599173917e+00 5.662441253662e-07
    9.572396995272e-01 2.901250000000e+02-1.146745787136e+00-8.282845013741e-09
   -2.642967233051e-11 1.000000000000e+00 2.155000000000e+03 0.000000000000e+00
    2.400000000000e+00 0.000000000000e+00-1.024454832077e-08 4.100000000000e+01
    5.472000000000e+05 4.000000000000e+00
25 21  5  1 10  0  0.0 1.289299689233e-04 7.162270776462e-12 0.000000000000e+00
    3.600000000000e+01 1.076562500000e+02 4.438042005121e-09 5.760984942775e-01
    5.723908543587e-06 9.913895744830e-03 8.041039109230e-06 5.153638168335e+03
    5.544000000000e+05-9.685754776001e-08 1.238441542084e+00 8.754432201385e-08
    9.612164536092e-01 2.250000000000e+02 9.652191232851e-01-8.098194465162e-09
   -2.685826161155e-10 1.000000000000e+00 2.155000000000e+03 0.000000000000e+00
    2.400000000000e+00 0.000000000000e+00 5.587935447693e-09 3.600000000000e+01
    5.472000000000e+05 4.000000000000e+00
20 21  5  1 10  0  0.0 5.226279608905e-04-3.410605131648e-13 0.000000000000e+00
    7.400000000000e+01-6.750000000000e+01 4.830201197268e-09 2.184539546338e+00
   -3.576278686523e-06 6.055571604520e-03 9.600073099136e-06 5.151712301254e+03
    5.544000000000e+05-4.470348358154e-08-2.046123641697e+00 7.450580596924e-08
    9.377615889857e-01 1.774375000000e+02 3.029294172753e+00-8.091051310478e-09
    3.671581507536e-10 1.000000000000e+00 2.155000000000e+03 0.000000000000e+00
    2.400000000000e+00 0.000000000000e+00-8.381903171539e-09 7.400000000000e+01
    5.472000000000e+05 4.000000000000e+00
17 21  5  1 10  0  0.0 4.352768883109e-04 6.139089236967e-12 0.000000000000e+00
    7.500000000000e+01 3.615625000000e+01 4.025881979858e-09-1.890811691554e+00
    2.045184373856e-06 1.333911437541e-02 2.251937985420e-06 5.153590112686e+03
    5.544000000000e+05 2.402812242508e-07 2.348044090810e+00 2.440065145493e-07
    9.822202735998e-01 3.484062500000e+02-1.568346847484e+00-7.975689362333e-09
   -5.428797559780e-11 1.000000000000e+00 2.155000000000e+03 0.000000000000e+00
    2.400000000000e+00 0.000000000000e+00-1.117587089539e-08 7.500000000000e+01
    5.472000000000e+05 4.000000000000e+00
14 21  5  1 10  0  0.0 9.113410487771e-05-4.092726157978e-12 0.000000000000e+00
    2.220000000000e+02 9.734375000000e+01 4.504473343681e-09 1.325850145380e+00
    5.042180418968e-06 6.243380485103e-04 7.923692464828e-06 5.153753980637e+03
    5.544000000000e+05 7.450580596924e-09 1.284886647086e+00-5.587935447693e-09
    9.573330541815e-01 2.210312500000e+02 2.582645109512e+00-8.046049435969e-09
   -2.328668426958e-10 1.000000000000e+00 2.155000000000e+03 0.000000000000e+00
    2.400000000000e+00 0.000000000000e+00-7.916241884232e-09 2.220000000000e+02
    5.472000000000e+05 4.000000000000e+00
23 21  5  1 10  0  0.0 1.100660301745e-04-2.728484105319e-12 0.000000000000e+00
    9.000000000000e+01-6.284375000000e+01 4.244105355452e-09 1.804664370875e+00
   -3.388151526451e-06 1.136843580753e-03 1.053698360920e-05 5.153656562805e+03
    5.544000000000e+05-5.029141902924e-08-1.927352125792e+00 3.539025783539e-08
    9.637232383469e-01 1.780000000000e+02 2.588728800637e+00-7.763894825954e-09
    4.978778814693e-10 1.000000000000e+00 2.155000000000e+03 0.000000000000e+00
    2.400000000000e+00 0.000000000000e+00-8.381903171539e-09 8.580000000000e+02
    5.472000000000e+05 4.000000000000e+00
18 21  5  1 10  0  0.0 3.512213006616e-04-5.684341886081e-13 0.000000000000e+00
    7.300000000000e+01-1.175937500000e+02 4.183031382905e-09 2.467001100338e+00
   -6.057322025299e-06 1.340331742540e-03 5.327165126801e-06 5.153671949387e+03
    5.544000000000e+05-3.911554813385e-08-2.926487499402e+00 2.793967723846e-08
    9.681085123026e-01 2.791875000000e+02 2.931685576495e+00-8.057121325729e-09
   -8.643217167545e-11 1.000000000000e+00 2.155000000000e+03 0.000000000000e+00
    2.400000000000e+00 0.000000000000e+00-8.381903171539e-09 5.850000000000e+02
    5.472000000000e+05 4.000000000000e+00
 2 21  5  1 12  0  0.0-6.004916504025e-04-3.296918293927e-12 0.000000000000e+00
    1.900000000000e+01-9.678125000000e+01 4.162316234321e-09-2.755632571317e+00
   -4.852190613747e-06 2.021728060208e-02 4.023313522339e-06 5.153668872833e+03
    5.616000000000e+05 2.402812242508e-07-3.021900470673e+00 2.235174179077e-08
    9.631027840682e-01 3.015312500000e+02-1.521899356463e+00-7.716392847306e-09
   -4.607334771129e-11 1.000000000000e+00 2.155000000000e+03 0.000000000000e+00
    2.400000000000e+00 0.000000000000e+00-1.769512891769e-08 1.900000000000e+01
    5.544000000000e+05 4.000000000000e+00
 1 21  5  1 12  0  0.0 7.014707662165e-04-1.057287590811e-11 0.000000000000e+00
    5.300000000000e+01-1.245312500000e+02 3.775514408187e-09-3.023385527091e+00
   -6.321817636490e-06 1.080414140597e-02 5.036592483521e-06 5.153688318253e+03
    5.616000000000e+05 5.401670932770e-08-2.938664127294e+00-3.166496753693e-08
    9.844162672432e-01 2.950312500000e+02 8.364553721923e-01-7.745679781510e-09
   -6.464554988949e-11 1.000000000000e+00 2.155000000000e+03 0.000000000000e+00
    2.400000000000e+00 0.000000000000e+00 5.122274160385e-09 5.300000000000e+01
    5.544000000000e+05 4.000000000000e+00
 5 21  5  1 12  0  0.0-4.066200926900e-05-1.136868377216e-12 0.000000000000e+00
    5.100000000000e+01-5.581250000000e+01 4.364110354142e-09-2.821841920471e-01
   -2.790242433548e-06 6.032038363628e-03 9.205192327499e-06 5.153868652344e+03
    5.616000000000e+05 3.911554813385e-08-1.937676743283e+00 8.754432201385e-08
    9.558208679472e-01 2.005625000000e+02 8.847360692657e-01-7.988189883030e-09
    4.428755904031e-10 1.000000000000e+00 2.155000000000e+03 0.000000000000e+00
    2.400000000000e+00 0.000000000000e+00-1.117587089539e-08 5.100000000000e+01
    5.544000000000e+05 4.000000000000e+00
 3 21  5  1 12  0  0.0-1.519713550806e-04-1.045918907039e-11 0.000000000000e+00
    9.200000000000e+01-7.387500000000e+01 4.025881979858e-09 2.194387305199e+00
   -3.708526492119e-06 3.426165203564e-03 1.000799238682e-05 5.153611541748e+03
    5.616000000000e+05-5.401670932770e-08-1.901165892173e+00-4.284083843231e-08
    9.688450052433e-01 1.893125000000e+02 8.276763437448e-01-7.712106954496e-09
    5.228789228631e-10 1.000000000000e+00 2.155000000000e+03 0.000000000000e+00
    3.400000000000e+00 0.000000000000e+00 1.862645149231e-09 9.200000000000e+01
    5.544000000000e+05 4.000000000000e+00
12 21  5  1 12  0  0.0-3.516301512718e-05-5.115907697473e-12 0.000000000000e+00
    2.000000000000e+01 1.005625000000e+02 4.072312485304e-09 1.921440984392e+00
    4.926696419716e-06 8.461814257316e-03 8.150935173035e-06 5.153755983353e+03
    5.616000000000e+05-6.146728992462e-08 1.311573483957e+00-1.844018697739e-07
    9.738246130754e-01 2.270000000000e+02 1.206480218447e+00-7.766752087828e-09
   -1.560779298437e-10 1.000000000000e+00 2.155000000000e+03 0.000000000000e+00
    2.400000000000e+00 0.000000000000e+00-1.257285475731e-08 2.000000000000e+01
    5.544000000000e+05 4.000000000000e+00
16 21  5  1 12  0  0.0-3.182645887136e-04-6.025402399246e-12 0.000000000000e+00
    1.400000000000e+01 1.176250000000e+02 4.181602751968e-09 8.525162714103e-02
    6.277114152908e-06 1.223841519095e-02 7.957220077515e-06 5.153693355560e+03
    5.616000000000e+05 3.352761268616e-08 1.330338957363e+00 1.341104507446e-07
    9.739004448970e-01 2.305000000000e+02 6.747299453020e-01-8.043192174096e-09
   -2.028655930234e-10 1.000000000000e+00 2.155000000000e+03 0.000000000000e+00
    2.400000000000e+00 0.000000000000e+00-1.024454832077e-08 1.400000000000e+01
    5.544000000000e+05 4.000000000000e+00
 9 21  5  1 12  0  0.0-3.426834009588e-04-2.501110429876e-12 0.000000000000e+00
    1.600000000000e+01-7.875000000000e+00 5.032352474823e-09-3.737360675388e-01
   -6.910413503647e-07 1.876172493212e-03 7.104128599167e-06 5.153785606384e+03
    5.616000000000e+05 3.725290298462e-08-8.709709039827e-01-1.117587089539e-08
    9.530628650653e-01 2.402500000000e+02 1.839264092138e+00-8.151768125291e-09
    3.200133298397e-10 1.000000000000e+00 2.155000000000e+03 0.000000000000e+00
    2.400000000000e+00 0.000000000000e+00 1.396983861923e-09 1.600000000000e+01
    5.544000000000e+05 4.000000000000e+00
 8 21  5  1 12  0  0.0-1.953449100256e-05-1.364242052659e-12 0.000000000000e+00
    2.400000000000e+01 5.406250000000e+01 4.424470011221e-09-7.951828573235e-01
    2.795830368996e-06 6.352275726385e-03 1.853331923485e-06 5.153592254639e+03
    5.616000000000e+05 1.192092895508e-07 2.270377083873e+00-1.527369022369e-07
    9.674279437942e-01 3.494687500000e+02 4.087245651330e-02-8.356776664720e-09
   -3.785871982478e-11 1.000000000000e+00 2.155000000000e+03 0.000000000000e+00
    2.400000000000e+00 0.000000000000e+00 5.122274160385e-09 2.400000000000e+01
    5.544000000000e+05 4.000000000000e+00
